STARLINK-30266          
1 57529U 23115J   26067.25161082  .00125986  00000+0  45460-2 0  9997
2 57529  43.0018   9.5251 0001763 256.7731 103.2924 15.27319514142136
FLOCK 4G-5              
1 62663U 25009BG  26068.45638436  .00011278  00000+0  40688-3 0  9997
2 62663  97.4058 151.2478 0002094 314.5072  45.5996 15.28679529 63699
